{
    "links": {
        "self": "http://www.neowsapp.com/rest/v1/neo/3765030?api_key=iIulBulltgU6a56xZRHN4H3l9WmuAYTsLGpBGhQ2"
    },
    "id": "3765030",
    "neo_reference_id": "3765030",
    "name": "(2016 VZ17)",
    "designation": "2016 VZ17",
    "nasa_jpl_url": "http://ssd.jpl.nasa.gov/sbdb.cgi?sstr=3765030",
    "absolute_magnitude_h": 27.517,
    "estimated_diameter": {
        "kilometers": {
            "estimated_diameter_min": 0.0083397873,
            "estimated_diameter_max": 0.0186483314
        },
        "meters": {
            "estimated_diameter_min": 8.3397873419,
            "estimated_diameter_max": 18.6483314144
        },
        "miles": {
            "estimated_diameter_min": 0.005182102,
            "estimated_diameter_max": 0.0115875323
        },
        "feet": {
            "estimated_diameter_min": 27.3615079028,
            "estimated_diameter_max": 61.1821916375
        }
    },
    "is_potentially_hazardous_asteroid": false,
    "close_approach_data": [
        {
            "close_approach_date": "2016-11-01",
            "close_approach_date_full": "2016-Nov-01 01:30",
            "epoch_date_close_approach": 1477963800000,
            "relative_velocity": {
                "kilometers_per_second": "10.3156947513",
                "kilometers_per_hour": "37136.5011048136",
                "miles_per_hour": "23075.177589266"
            },
            "miss_distance": {
                "astronomical": "0.0087231705",
                "lunar": "3.3933133245",
                "kilometers": "1304967.726446835",
                "miles": "810869.344702923"
            },
            "orbiting_body": "Moon"
        },
        {
            "close_approach_date": "2016-11-01",
            "close_approach_date_full": "2016-Nov-01 10:10",
            "epoch_date_close_approach": 1477995000000,
            "relative_velocity": {
                "kilometers_per_second": "9.9552864829",
                "kilometers_per_hour": "35839.0313385026",
                "miles_per_hour": "22268.9803336379"
            },
            "miss_distance": {
                "astronomical": "0.0085714366",
                "lunar": "3.3342888374",
                "kilometers": "1282268.658200042",
                "miles": "796764.7977308996"
            },
            "orbiting_body": "Earth"
        }
    ],
    "orbital_data": {
        "orbit_id": "4",
        "orbit_determination_date": "2017-04-06 08:22:11",
        "first_observation_date": "2016-11-05",
        "last_observation_date": "2016-11-05",
        "data_arc_in_days": null,
        "observations_used": 8,
        "orbit_uncertainty": "9",
        "minimum_orbit_intersection": ".00747811",
        "jupiter_tisserand_invariant": "3.736",
        "epoch_osculation": "2457697.5",
        "eccentricity": ".5187765131488594",
        "semi_major_axis": "1.930700697816845",
        "inclination": ".9165700286075305",
        "ascending_node_longitude": "10.49913632660676",
        "orbital_period": "979.8754055401245",
        "perihelion_distance": ".9290985218693523",
        "perihelion_argument": "352.4017332095131",
        "aphelion_distance": "2.932302873764337",
        "perihelion_time": "2457666.061135065249",
        "mean_anomaly": "11.55043928291239",
        "mean_motion": ".3673936481766901",
        "equinox": "J2000",
        "orbit_class": {
            "orbit_class_type": "APO",
            "orbit_class_description": "Near-Earth asteroid orbits which cross the Earth’s orbit similar to that of 1862 Apollo",
            "orbit_class_range": "a (semi-major axis) > 1.0 AU; q (perihelion) < 1.017 AU"
        }
    },
    "is_sentry_object": false
}